     3.02           N: GNSS NAV DATA    E: GALILEO          RINEX VERSION / TYPE
Spider V6.2.0.6944  ICGC                20180117 230252 UTC PGM / RUN BY / DATE
    18    18  1929     7                                    LEAP SECONDS
                                                            END OF HEADER
E18 2018 01 17 16 20 00 6.496899353806D-03-2.852118541341D-11 0.000000000000D+00
     1.800000000000D+01 8.750000000000D+00 6.543129593695D-09 1.640756837822D-01
     5.234032869339D-07 1.643889611587D-01 5.504116415977D-06 5.289330568314D+03
     3.180000000000D+05-3.570690751076D-06-1.338886863772D+00 2.048909664154D-08
     8.795911107289D-01 2.559375000000D+02 1.236942052516D+00-1.088295331869D-08
    -3.521575253629D-10 5.170000000000D+02 1.984000000000D+03 0.000000000000D+00
     3.120000000000D+00 4.550000000000D+02 1.373700797558D-08 1.536682248116D-08
     3.186640000000D+05
E19 2018 01 17 17 10 00 1.845048973337D-05 4.121147867409D-13 0.000000000000D+00
     2.300000000000D+01 4.650000000000D+01 3.649437640973D-09 1.302090199432D+00
     2.065673470497D-06 1.813468988985D-04 5.593523383141D-06 5.440606044769D+03
     3.210000000000D+05-1.862645149231D-09 1.269773480328D+00-1.117587089539D-08
     9.577942756789D-01 2.206250000000D+02 2.511379852571D+00-5.740596261734D-09
     5.343079867437D-10 5.170000000000D+02 1.984000000000D+03 0.000000000000D+00
     3.120000000000D+00 0.000000000000D+00-9.313225746155D-09-1.001171767712D-08
     3.216640000000D+05
E04 2018 01 17 18 00 00 4.213914508000D-05-7.460698725481D-12 0.000000000000D+00
     2.800000000000D+01 4.268750000000D+01 3.758727995518D-09 8.351157269050D-01
     1.993030309677D-06 1.134689664468D-04 5.548819899559D-06 5.440605907440D+03
     3.240000000000D+05-2.048909664154D-08 1.274594346919D+00 7.450580596924D-09
     9.520683294674D-01 2.192812500000D+02 2.489944383972D+00-5.777383508356D-09
     5.425225824141D-10 5.170000000000D+02 1.984000000000D+03 0.000000000000D+00
     3.120000000000D+00 0.000000000000D+00-8.614733815193D-09-9.778887033463D-09
     3.246550000000D+05
E24 2018 01 17 19 00 00 6.911348784342D-03-2.026467882388D-11 0.000000000000D+00
     3.400000000000D+01 1.302500000000D+02 2.357241069006D-09 4.907546447808D-01
     6.180256605148D-06 4.398799501359D-04 1.215375959873D-05 5.440626659393D+03
     3.276000000000D+05 4.097819328308D-08-2.915882992036D+00-2.980232238770D-08
     9.927649022659D-01 9.171875000000D+01 4.067213636116D-01-5.071282667850D-09
    -2.753686167978D-10 5.170000000000D+02 1.984000000000D+03 0.000000000000D+00
     3.120000000000D+00 0.000000000000D+00 4.190951585770D-08 4.679895937443D-08
     3.282550000000D+05
E01 2018 01 17 19 00 00-2.553982776590D-04-8.739675649849D-12 0.000000000000D+00
     3.400000000000D+01 1.070312500000D+02 2.213663696793D-09-2.769624248984D+00
     4.995614290237D-06 9.613553993404D-05 1.183524727821D-05 5.440634611130D+03
     3.276000000000D+05-8.568167686462D-08-2.919967386168D+00 7.636845111847D-08
     9.951843917559D-01 1.044375000000D+02-1.035362270857D+00-5.076282876129D-09
    -2.567964174638D-10 5.170000000000D+02 1.984000000000D+03 0.000000000000D+00
     3.120000000000D+00 0.000000000000D+00-5.355104804039D-09-6.053596735001D-09
     3.282550000000D+05
E09 2018 01 17 19 00 00 6.900764710736D-03-1.068656274583D-11 0.000000000000D+00
     3.400000000000D+01 3.921875000000D+01 3.619793575993D-09 3.061502482313D+00
     1.873821020126D-06 1.886002719402D-04 5.856156349182D-06 5.440606086731D+03
     3.276000000000D+05-1.676380634308D-08 1.264320030404D+00 3.352761268616D-08
     9.580325352948D-01 2.142812500000D+02-7.465403645170D-02-5.692737125351D-09
     5.718095441587D-10 5.170000000000D+02 1.984000000000D+03 0.000000000000D+00
     3.120000000000D+00 0.000000000000D+00-4.190951585770D-09-4.889443516731D-09
     3.282550000000D+05
E12 2018 01 17 19 00 00 3.303285338916D-03 8.444089871773D-11 0.000000000000D+00
     3.400000000000D+01-1.547500000000D+02 3.020482974847D-09 4.514652104582D-01
    -7.202848792076D-06 3.808015026152D-04 2.084299921989D-06 5.440601959229D+03
     3.276000000000D+05-1.490116119385D-08-8.308235135570D-01-1.303851604462D-08
     9.772409598142D-01 3.023125000000D+02-8.682080573791D-01-5.804527496155D-09
    -3.153702854419D-10 5.170000000000D+02 1.984000000000D+03 0.000000000000D+00
     3.120000000000D+00 0.000000000000D+00-1.629814505577D-08-1.699663698673D-08
     3.285850000000D+05
E12 2018 01 17 19 10 00 3.303336037789D-03 8.444089871773D-11 0.000000000000D+00
     3.500000000000D+01-1.547812500000D+02 3.014054117401D-09 5.255899382792D-01
    -7.204711437225D-06 3.808888141066D-04 2.041459083557D-06 5.440602224350D+03
     3.282000000000D+05-9.313225746155D-09-8.308270055425D-01-1.303851604462D-08
     9.772407915787D-01 3.033437500000D+02-8.679469513715D-01-5.800955918813D-09
    -3.153702854419D-10 5.170000000000D+02 1.984000000000D+03 0.000000000000D+00
     3.120000000000D+00 0.000000000000D+00-1.653097569942D-08-1.722946763039D-08
     3.288550000000D+05
E24 2018 01 17 19 10 00 6.911336677149D-03-2.025046796916D-11 0.000000000000D+00
     3.500000000000D+01 1.290937500000D+02 2.370455831624D-09 5.656687368649D-01
     6.139278411865D-06 4.396957810968D-04 1.208111643791D-05 5.440626064301D+03
     3.282000000000D+05 4.656612873077D-08-2.915886061239D+00-2.421438694000D-08
     9.927647194011D-01 9.375000000000D+01 4.061914990721D-01-5.072711298787D-09
    -2.707255530865D-10 5.170000000000D+02 1.984000000000D+03 0.000000000000D+00
     3.120000000000D+00 0.000000000000D+00 4.190951585770D-08 4.679895937443D-08
     3.288550000000D+05
E01 2018 01 17 19 10 00-2.554035745561D-04-8.739675649849D-12 0.000000000000D+00
     3.500000000000D+01 1.085312500000D+02 2.247593666738D-09-2.697664323930D+00
     5.040317773819D-06 9.638839401305D-05 1.190416514874D-05 5.440633922577D+03
     3.282000000000D+05-1.210719347000D-07-2.919970291523D+00 9.313225746155D-08
     9.951840933206D-01 1.021875000000D+02-1.032938483314D+00-5.105569810333D-09
    -2.603679771784D-10 5.170000000000D+02 1.984000000000D+03 0.000000000000D+00
     3.120000000000D+00 0.000000000000D+00-5.355104804039D-09-6.053596735001D-09
     3.288550000000D+05
E09 2018 01 17 19 10 00 6.900758366100D-03-1.068656274583D-11 0.000000000000D+00
     3.500000000000D+01 3.965625000000D+01 3.616579258292D-09 3.136097648015D+00
     1.888722181320D-06 1.884864177555D-04 5.828216671944D-06 5.440606327057D+03
     3.282000000000D+05-2.048909664154D-08 1.264316615953D+00 2.980232238770D-08
     9.580328585997D-01 2.151250000000D+02-7.486318546074D-02-5.696665860428D-09
     5.728810203998D-10 5.170000000000D+02 1.984000000000D+03 0.000000000000D+00
     3.120000000000D+00 0.000000000000D+00-4.190951585770D-09-4.889443516731D-09
     3.293650000000D+05
E24 2018 01 17 19 20 00 6.911324744578D-03-2.025046796916D-11 0.000000000000D+00
     3.600000000000D+01 1.283437500000D+02 2.382956498792D-09 6.405543430081D-01
     6.113201379776D-06 4.395465366542D-04 1.201406121254D-05 5.440625534058D+03
     3.288000000000D+05 5.215406417847D-08-2.915889133367D+00-1.676380634308D-08
     9.927645350735D-01 9.565625000000D+01 4.056901658238D-01-5.074139929724D-09
    -2.646538821427D-10 5.170000000000D+02 1.984000000000D+03 0.000000000000D+00
     3.120000000000D+00 0.000000000000D+00 4.190951585770D-08 4.679895937443D-08
     3.294550000000D+05
E01 2018 01 17 19 20 00-2.554087550379D-04-8.725464795134D-12 0.000000000000D+00
     3.600000000000D+01 1.099687500000D+02 2.260808429355D-09-2.627235778596D+00
     5.088746547699D-06 9.672495070845D-05 1.202337443829D-05 5.440632904053D+03
     3.288000000000D+05-1.024454832077D-07-2.919973441186D+00 7.078051567078D-08
     9.951840362668D-01 9.843750000000D+01-1.028983235591D+00-5.084497504015D-09
    -2.553677824757D-10 5.170000000000D+02 1.984000000000D+03 0.000000000000D+00
     3.120000000000D+00 0.000000000000D+00-5.355104804039D-09-6.053596735001D-09
     3.294550000000D+05
E09 2018 01 17 19 20 00 6.900752021465D-03-1.068656274583D-11 0.000000000000D+00
     3.600000000000D+01 4.025000000000D+01 3.614079036041D-09-3.072443446208D+00
     1.911073923111D-06 1.883720979095D-04 5.800276994705D-06 5.440606576920D+03
     3.288000000000D+05-2.235174179077D-08 1.264313198577D+00 2.607703208923D-08
     9.580331789788D-01 2.158750000000D+02-7.512139050173D-02-5.700951753238D-09
     5.743096553879D-10 5.170000000000D+02 1.984000000000D+03 0.000000000000D+00
     3.120000000000D+00 0.000000000000D+00-4.190951585770D-09-4.889443516731D-09
     3.294550000000D+05
E26 2018 01 17 19 20 00 6.374845223036D-03-4.325784175307D-11 0.000000000000D+00
     3.600000000000D+01-1.506250000000D+02 2.971195289803D-09-2.822375686613D+00
    -6.979331374168D-06 2.807355485857D-04 1.279637217522D-06 5.440607051849D+03
     3.288000000000D+05-3.352761268616D-08-8.262896012728D-01-5.215406417847D-08
     9.735629979724D-01 3.205000000000D+02-2.154009965995D+00-5.769526038204D-09
    -2.885834626820D-10 5.170000000000D+02 1.984000000000D+03 0.000000000000D+00
     3.120000000000D+00 0.000000000000D+00 9.313225746155D-10 9.313225746155D-10
     3.296050000000D+05
E26 2018 01 17 19 30 00 6.374819204211D-03-4.325784175307D-11 0.000000000000D+00
     3.700000000000D+01-1.499375000000D+02 2.982981417432D-09-2.748722433882D+00
    -6.953254342079D-06 2.809660509229D-04 1.188367605209D-06 5.440606433868D+03
     3.294000000000D+05-2.793967723846D-08-8.262930142607D-01-6.332993507385D-08
     9.735628399772D-01 3.228437500000D+02-2.153277857420D+00-5.770954669140D-09
    -2.960837686139D-10 5.170000000000D+02 1.984000000000D+03 0.000000000000D+00
     3.120000000000D+00 0.000000000000D+00 4.656612873077D-10 4.656612873077D-10
     3.300550000000D+05
